{"type": "FeatureCollection", "features": [{"type": "Feature", "geometry": {"type": "Point", "coordinates": [2.220126309, 41.406099539]}, "properties": {"stage": 1, "kind": "START_REAL", "category": null, "label": "D\u00e9part r\u00e9el", "km_from_start": 0.0, "altitude_m": null, "climb_length_km": null, "avg_gradient_pct": null, "final_straight_m": null, "road_width_m": null, "licence": "All rights reserved (Amaury Sport Organisation)"}}, {"type": "Feature", "geometry": {"type": "Point", "coordinates": [2.20967, 41.40669]}, "properties": {"stage": 1, "kind": "TIME_CHECK", "category": null, "label": "Chrono", "km_from_start": 5.084, "altitude_m": null, "climb_length_km": null, "avg_gradient_pct": null, "final_straight_m": null, "road_width_m": null, "licence": "All rights reserved (Amaury Sport Organisation)"}}, {"type": "Feature", "geometry": {"type": "Point", "coordinates": [2.17314, 41.4018]}, "properties": {"stage": 1, "kind": "TIME_CHECK", "category": null, "label": "Chrono", "km_from_start": 10.466, "altitude_m": null, "climb_length_km": null, "avg_gradient_pct": null, "final_straight_m": null, "road_width_m": null, "licence": "All rights reserved (Amaury Sport Organisation)"}}, {"type": "Feature", "geometry": {"type": "Point", "coordinates": [2.15765, 41.37025]}, "properties": {"stage": 1, "kind": "TIME_CHECK", "category": null, "label": "Chrono", "km_from_start": 15.886, "altitude_m": null, "climb_length_km": null, "avg_gradient_pct": null, "final_straight_m": null, "road_width_m": null, "licence": "All rights reserved (Amaury Sport Organisation)"}}, {"type": "Feature", "geometry": {"type": "Point", "coordinates": [1.237826666, 41.12271]}, "properties": {"stage": 2, "kind": "START_CEREMONIAL", "category": null, "label": "D\u00e9part fictif", "km_from_start": null, "altitude_m": null, "climb_length_km": null, "avg_gradient_pct": null, "final_straight_m": null, "road_width_m": null, "licence": "All rights reserved (Amaury Sport Organisation)"}}, {"type": "Feature", "geometry": {"type": "Point", "coordinates": [1.28276, 41.1239]}, "properties": {"stage": 2, "kind": "START_REAL", "category": null, "label": "D\u00e9part r\u00e9el", "km_from_start": 0.0, "altitude_m": null, "climb_length_km": null, "avg_gradient_pct": null, "final_straight_m": null, "road_width_m": null, "licence": "All rights reserved (Amaury Sport Organisation)"}}, {"type": "Feature", "geometry": {"type": "Point", "coordinates": [2.01431, 41.30933]}, "properties": {"stage": 2, "kind": "SPRINT", "category": null, "label": "Sprint", "km_from_start": 85.901, "altitude_m": null, "climb_length_km": null, "avg_gradient_pct": null, "final_straight_m": null, "road_width_m": null, "licence": "All rights reserved (Amaury Sport Organisation)"}}, {"type": "Feature", "geometry": {"type": "Point", "coordinates": [1.94714, 41.326310001]}, "properties": {"stage": 2, "kind": "SUMMIT", "category": "2", "label": "Cat\u00e9gorie 2", "km_from_start": 94.548, "altitude_m": 399, "climb_length_km": 6.1, "avg_gradient_pct": 6.5, "final_straight_m": null, "road_width_m": null, "licence": "All rights reserved (Amaury Sport Organisation)"}}, {"type": "Feature", "geometry": {"type": "Point", "coordinates": [2.16732, 41.36504]}, "properties": {"stage": 2, "kind": "SUMMIT", "category": "3", "label": "Cat\u00e9gorie 3", "km_from_start": 141.898, "altitude_m": 163, "climb_length_km": 1.6, "avg_gradient_pct": 9.3, "final_straight_m": null, "road_width_m": null, "licence": "All rights reserved (Amaury Sport Organisation)"}}, {"type": "Feature", "geometry": {"type": "Point", "coordinates": [2.15764, 41.36456]}, "properties": {"stage": 2, "kind": "FINISH", "category": null, "label": "Arriv\u00e9e/Mixte_2", "km_from_start": 168.5, "altitude_m": null, "climb_length_km": null, "avg_gradient_pct": null, "final_straight_m": 700, "road_width_m": 6.0, "licence": "All rights reserved (Amaury Sport Organisation)"}}, {"type": "Feature", "geometry": {"type": "Point", "coordinates": [2.287000001, 41.61407]}, "properties": {"stage": 3, "kind": "START_CEREMONIAL", "category": null, "label": "D\u00e9part fictif", "km_from_start": null, "altitude_m": null, "climb_length_km": null, "avg_gradient_pct": null, "final_straight_m": null, "road_width_m": null, "licence": "All rights reserved (Amaury Sport Organisation)"}}, {"type": "Feature", "geometry": {"type": "Point", "coordinates": [2.25149, 41.6244]}, "properties": {"stage": 3, "kind": "START_REAL", "category": null, "label": "D\u00e9part r\u00e9el", "km_from_start": 0.0, "altitude_m": null, "climb_length_km": null, "avg_gradient_pct": null, "final_straight_m": null, "road_width_m": null, "licence": "All rights reserved (Amaury Sport Organisation)"}}, {"type": "Feature", "geometry": {"type": "Point", "coordinates": [2.16394, 41.70269]}, "properties": {"stage": 3, "kind": "SUMMIT", "category": "3", "label": "Cat\u00e9gorie 3", "km_from_start": 17.261, "altitude_m": 622, "climb_length_km": 7.6, "avg_gradient_pct": 4.5, "final_straight_m": null, "road_width_m": null, "licence": "All rights reserved (Amaury Sport Organisation)"}}, {"type": "Feature", "geometry": {"type": "Point", "coordinates": [2.16909, 42.22985]}, "properties": {"stage": 3, "kind": "SPRINT", "category": null, "label": "Sprint", "km_from_start": 98.463, "altitude_m": null, "climb_length_km": null, "avg_gradient_pct": null, "final_straight_m": null, "road_width_m": null, "licence": "All rights reserved (Amaury Sport Organisation)"}}, {"type": "Feature", "geometry": {"type": "Point", "coordinates": [1.985082243, 42.331267034]}, "properties": {"stage": 3, "kind": "SUMMIT", "category": "1", "label": "Cat\u00e9gorie 1", "km_from_start": 127.738, "altitude_m": 1778, "climb_length_km": 9.3, "avg_gradient_pct": 6.5, "final_straight_m": null, "road_width_m": null, "licence": "All rights reserved (Amaury Sport Organisation)"}}, {"type": "Feature", "geometry": {"type": "Point", "coordinates": [2.049813669, 42.511544304]}, "properties": {"stage": 3, "kind": "SUMMIT", "category": "3", "label": "Cat\u00e9gorie 3", "km_from_start": 172.289, "altitude_m": 1836, "climb_length_km": 11.4, "avg_gradient_pct": 4.1, "final_straight_m": null, "road_width_m": null, "licence": "All rights reserved (Amaury Sport Organisation)"}}, {"type": "Feature", "geometry": {"type": "Point", "coordinates": [2.065988844, 42.563686441]}, "properties": {"stage": 3, "kind": "FINISH", "category": "3", "label": "Arriv\u00e9e/Cat\u00e9gorie 3", "km_from_start": 195.9, "altitude_m": null, "climb_length_km": null, "avg_gradient_pct": null, "final_straight_m": 80, "road_width_m": 5.5, "licence": "All rights reserved (Amaury Sport Organisation)"}}, {"type": "Feature", "geometry": {"type": "Point", "coordinates": [2.35261, 43.21018]}, "properties": {"stage": 4, "kind": "START_CEREMONIAL", "category": null, "label": "D\u00e9part fictif", "km_from_start": null, "altitude_m": null, "climb_length_km": null, "avg_gradient_pct": null, "final_straight_m": null, "road_width_m": null, "licence": "All rights reserved (Amaury Sport Organisation)"}}, {"type": "Feature", "geometry": {"type": "Point", "coordinates": [2.436019999, 43.20063]}, "properties": {"stage": 4, "kind": "START_REAL", "category": null, "label": "D\u00e9part r\u00e9el", "km_from_start": 0.0, "altitude_m": null, "climb_length_km": null, "avg_gradient_pct": null, "final_straight_m": null, "road_width_m": null, "licence": "All rights reserved (Amaury Sport Organisation)"}}, {"type": "Feature", "geometry": {"type": "Point", "coordinates": [2.58079, 42.97365]}, "properties": {"stage": 4, "kind": "SUMMIT", "category": "4", "label": "Cat\u00e9gorie 4", "km_from_start": 48.406, "altitude_m": 485, "climb_length_km": 3.4, "avg_gradient_pct": 4.4, "final_straight_m": null, "road_width_m": null, "licence": "All rights reserved (Amaury Sport Organisation)"}}, {"type": "Feature", "geometry": {"type": "Point", "coordinates": [2.43145, 42.94458]}, "properties": {"stage": 4, "kind": "SUMMIT", "category": "3", "label": "Cat\u00e9gorie 3", "km_from_start": 65.011, "altitude_m": 622, "climb_length_km": 5.9, "avg_gradient_pct": 4.1, "final_straight_m": null, "road_width_m": null, "licence": "All rights reserved (Amaury Sport Organisation)"}}, {"type": "Feature", "geometry": {"type": "Point", "coordinates": [2.18962875, 42.880296251]}, "properties": {"stage": 4, "kind": "SPRINT", "category": null, "label": "Sprint", "km_from_start": 93.488, "altitude_m": null, "climb_length_km": null, "avg_gradient_pct": null, "final_straight_m": null, "road_width_m": null, "licence": "All rights reserved (Amaury Sport Organisation)"}}, {"type": "Feature", "geometry": {"type": "Point", "coordinates": [2.12242, 42.86162]}, "properties": {"stage": 4, "kind": "SUMMIT", "category": "2", "label": "Cat\u00e9gorie 2", "km_from_start": 104.954, "altitude_m": 883, "climb_length_km": 10.8, "avg_gradient_pct": 5.5, "final_straight_m": null, "road_width_m": null, "licence": "All rights reserved (Amaury Sport Organisation)"}}, {"type": "Feature", "geometry": {"type": "Point", "coordinates": [1.824449025, 42.874053209]}, "properties": {"stage": 4, "kind": "SUMMIT", "category": "2", "label": "Cat\u00e9gorie 2", "km_from_start": 146.733, "altitude_m": 1059, "climb_length_km": 6.9, "avg_gradient_pct": 6.6, "final_straight_m": null, "road_width_m": null, "licence": "All rights reserved (Amaury Sport Organisation)"}}, {"type": "Feature", "geometry": {"type": "Point", "coordinates": [1.607409423, 42.963957579]}, "properties": {"stage": 4, "kind": "FINISH", "category": null, "label": "Arriv\u00e9e", "km_from_start": 181.9, "altitude_m": null, "climb_length_km": null, "avg_gradient_pct": null, "final_straight_m": 300, "road_width_m": null, "licence": "All rights reserved (Amaury Sport Organisation)"}}, {"type": "Feature", "geometry": {"type": "Point", "coordinates": [0.384409999, 43.1255]}, "properties": {"stage": 5, "kind": "START_CEREMONIAL", "category": null, "label": "D\u00e9part fictif", "km_from_start": null, "altitude_m": null, "climb_length_km": null, "avg_gradient_pct": null, "final_straight_m": null, "road_width_m": null, "licence": "All rights reserved (Amaury Sport Organisation)"}}, {"type": "Feature", "geometry": {"type": "Point", "coordinates": [0.41759, 43.12963]}, "properties": {"stage": 5, "kind": "START_REAL", "category": null, "label": "D\u00e9part r\u00e9el", "km_from_start": 0.0, "altitude_m": null, "climb_length_km": null, "avg_gradient_pct": null, "final_straight_m": null, "road_width_m": null, "licence": "All rights reserved (Amaury Sport Organisation)"}}, {"type": "Feature", "geometry": {"type": "Point", "coordinates": [0.05298, 43.39507]}, "properties": {"stage": 5, "kind": "SPRINT", "category": null, "label": "Sprint", "km_from_start": 113.664, "altitude_m": null, "climb_length_km": null, "avg_gradient_pct": null, "final_straight_m": null, "road_width_m": null, "licence": "All rights reserved (Amaury Sport Organisation)"}}, {"type": "Feature", "geometry": {"type": "Point", "coordinates": [-0.1414, 43.37741]}, "properties": {"stage": 5, "kind": "SUMMIT", "category": "3", "label": "Cat\u00e9gorie 3", "km_from_start": 132.8, "altitude_m": 348, "climb_length_km": 1.0, "avg_gradient_pct": 8.8, "final_straight_m": null, "road_width_m": null, "licence": "All rights reserved (Amaury Sport Organisation)"}}, {"type": "Feature", "geometry": {"type": "Point", "coordinates": [-0.37687, 43.29863]}, "properties": {"stage": 5, "kind": "FINISH", "category": null, "label": "Arriv\u00e9e", "km_from_start": 158.3, "altitude_m": null, "climb_length_km": null, "avg_gradient_pct": null, "final_straight_m": 560, "road_width_m": 6.5, "licence": "All rights reserved (Amaury Sport Organisation)"}}, {"type": "Feature", "geometry": {"type": "Point", "coordinates": [-0.367969505, 43.292003168]}, "properties": {"stage": 6, "kind": "START_CEREMONIAL", "category": null, "label": "D\u00e9part fictif", "km_from_start": null, "altitude_m": null, "climb_length_km": null, "avg_gradient_pct": null, "final_straight_m": null, "road_width_m": null, "licence": "All rights reserved (Amaury Sport Organisation)"}}, {"type": "Feature", "geometry": {"type": "Point", "coordinates": [-0.35506, 43.28373]}, "properties": {"stage": 6, "kind": "START_REAL", "category": null, "label": "D\u00e9part r\u00e9el", "km_from_start": 0.0, "altitude_m": null, "climb_length_km": null, "avg_gradient_pct": null, "final_straight_m": null, "road_width_m": null, "licence": "All rights reserved (Amaury Sport Organisation)"}}, {"type": "Feature", "geometry": {"type": "Point", "coordinates": [0.068263333, 43.116683333]}, "properties": {"stage": 6, "kind": "SUMMIT", "category": "4", "label": "Cat\u00e9gorie 4", "km_from_start": 51.02, "altitude_m": 528, "climb_length_km": 2.0, "avg_gradient_pct": 7.1, "final_straight_m": null, "road_width_m": null, "licence": "All rights reserved (Amaury Sport Organisation)"}}, {"type": "Feature", "geometry": {"type": "Point", "coordinates": [0.137150415, 43.084486519]}, "properties": {"stage": 6, "kind": "SPRINT", "category": null, "label": "Sprint", "km_from_start": 59.181, "altitude_m": null, "climb_length_km": null, "avg_gradient_pct": null, "final_straight_m": null, "road_width_m": null, "licence": "All rights reserved (Amaury Sport Organisation)"}}, {"type": "Feature", "geometry": {"type": "Point", "coordinates": [0.279961635, 43.11681229]}, "properties": {"stage": 6, "kind": "SUMMIT", "category": "3", "label": "Cat\u00e9gorie 3", "km_from_start": 77.354, "altitude_m": 518, "climb_length_km": 3.0, "avg_gradient_pct": 6.8, "final_straight_m": null, "road_width_m": null, "licence": "All rights reserved (Amaury Sport Organisation)"}}, {"type": "Feature", "geometry": {"type": "Point", "coordinates": [0.32738, 42.942350001]}, "properties": {"stage": 6, "kind": "SUMMIT", "category": "1", "label": "Cat\u00e9gorie 1", "km_from_start": 118.087, "altitude_m": 1489, "climb_length_km": 12.0, "avg_gradient_pct": 6.5, "final_straight_m": null, "road_width_m": null, "licence": "All rights reserved (Amaury Sport Organisation)"}}, {"type": "Feature", "geometry": {"type": "Point", "coordinates": [0.145541472, 42.908505356]}, "properties": {"stage": 6, "kind": "SUMMIT", "category": "HC", "label": "Cat\u00e9gorie HC", "km_from_start": 147.79, "altitude_m": 2115, "climb_length_km": 17.1, "avg_gradient_pct": 7.3, "final_straight_m": null, "road_width_m": null, "licence": "All rights reserved (Amaury Sport Organisation)"}}, {"type": "Feature", "geometry": {"type": "Point", "coordinates": [-0.012808505, 42.736843358]}, "properties": {"stage": 6, "kind": "FINISH", "category": "2", "label": "Arriv\u00e9e/Cat\u00e9gorie 2", "km_from_start": 186.2, "altitude_m": null, "climb_length_km": null, "avg_gradient_pct": null, "final_straight_m": 40, "road_width_m": 5.0, "licence": "All rights reserved (Amaury Sport Organisation)"}}, {"type": "Feature", "geometry": {"type": "Point", "coordinates": [-0.593133544, 43.653442627]}, "properties": {"stage": 7, "kind": "START_CEREMONIAL", "category": null, "label": "D\u00e9part fictif", "km_from_start": null, "altitude_m": null, "climb_length_km": null, "avg_gradient_pct": null, "final_straight_m": null, "road_width_m": null, "licence": "All rights reserved (Amaury Sport Organisation)"}}, {"type": "Feature", "geometry": {"type": "Point", "coordinates": [-0.587875715, 43.668715716]}, "properties": {"stage": 7, "kind": "START_REAL", "category": null, "label": "D\u00e9part r\u00e9el", "km_from_start": 0.0, "altitude_m": null, "climb_length_km": null, "avg_gradient_pct": null, "final_straight_m": null, "road_width_m": null, "licence": "All rights reserved (Amaury Sport Organisation)"}}, {"type": "Feature", "geometry": {"type": "Point", "coordinates": [-0.424730559, 44.561362596]}, "properties": {"stage": 7, "kind": "SPRINT", "category": null, "label": "Sprint", "km_from_start": 120.3, "altitude_m": null, "climb_length_km": null, "avg_gradient_pct": null, "final_straight_m": null, "road_width_m": null, "licence": "All rights reserved (Amaury Sport Organisation)"}}, {"type": "Feature", "geometry": {"type": "Point", "coordinates": [-0.32225, 44.66049]}, "properties": {"stage": 7, "kind": "SUMMIT", "category": "4", "label": "Cat\u00e9gorie 4", "km_from_start": 137.344, "altitude_m": 86, "climb_length_km": 1.2, "avg_gradient_pct": 4.4, "final_straight_m": null, "road_width_m": null, "licence": "All rights reserved (Amaury Sport Organisation)"}}, {"type": "Feature", "geometry": {"type": "Point", "coordinates": [-0.570764011, 44.845856899]}, "properties": {"stage": 7, "kind": "FINISH", "category": null, "label": "Arriv\u00e9e", "km_from_start": 175.1, "altitude_m": null, "climb_length_km": null, "avg_gradient_pct": null, "final_straight_m": 560, "road_width_m": 6.0, "licence": "All rights reserved (Amaury Sport Organisation)"}}, {"type": "Feature", "geometry": {"type": "Point", "coordinates": [0.72259, 45.186309999]}, "properties": {"stage": 8, "kind": "START_CEREMONIAL", "category": null, "label": "D\u00e9part fictif", "km_from_start": null, "altitude_m": null, "climb_length_km": null, "avg_gradient_pct": null, "final_straight_m": null, "road_width_m": null, "licence": "All rights reserved (Amaury Sport Organisation)"}}, {"type": "Feature", "geometry": {"type": "Point", "coordinates": [0.771310001, 45.16456]}, "properties": {"stage": 8, "kind": "START_REAL", "category": null, "label": "D\u00e9part r\u00e9el", "km_from_start": 0.0, "altitude_m": null, "climb_length_km": null, "avg_gradient_pct": null, "final_straight_m": null, "road_width_m": null, "licence": "All rights reserved (Amaury Sport Organisation)"}}, {"type": "Feature", "geometry": {"type": "Point", "coordinates": [1.215555, 44.80301]}, "properties": {"stage": 8, "kind": "SUMMIT", "category": "4", "label": "Cat\u00e9gorie 4", "km_from_start": 102.729, "altitude_m": 216, "climb_length_km": 3.7, "avg_gradient_pct": 3.3, "final_straight_m": null, "road_width_m": null, "licence": "All rights reserved (Amaury Sport Organisation)"}}, {"type": "Feature", "geometry": {"type": "Point", "coordinates": [1.04173, 44.862986667]}, "properties": {"stage": 8, "kind": "SPRINT", "category": null, "label": "Sprint", "km_from_start": 122.867, "altitude_m": null, "climb_length_km": null, "avg_gradient_pct": null, "final_straight_m": null, "road_width_m": null, "licence": "All rights reserved (Amaury Sport Organisation)"}}, {"type": "Feature", "geometry": {"type": "Point", "coordinates": [0.872348571, 44.842442857]}, "properties": {"stage": 8, "kind": "SUMMIT", "category": "4", "label": "Cat\u00e9gorie 4", "km_from_start": 140.511, "altitude_m": 191, "climb_length_km": 2.2, "avg_gradient_pct": 5.3, "final_straight_m": null, "road_width_m": null, "licence": "All rights reserved (Amaury Sport Organisation)"}}, {"type": "Feature", "geometry": {"type": "Point", "coordinates": [0.503781176, 44.846912354]}, "properties": {"stage": 8, "kind": "FINISH", "category": null, "label": "Arriv\u00e9e", "km_from_start": 180.4, "altitude_m": null, "climb_length_km": null, "avg_gradient_pct": null, "final_straight_m": 500, "road_width_m": 6.0, "licence": "All rights reserved (Amaury Sport Organisation)"}}, {"type": "Feature", "geometry": {"type": "Point", "coordinates": [1.72343, 45.125130001]}, "properties": {"stage": 9, "kind": "SPRINT", "category": null, "label": "Sprint", "km_from_start": null, "altitude_m": null, "climb_length_km": null, "avg_gradient_pct": null, "final_straight_m": null, "road_width_m": null, "licence": "All rights reserved (Amaury Sport Organisation)"}}, {"type": "Feature", "geometry": {"type": "Point", "coordinates": [1.5588, 45.16497]}, "properties": {"stage": 9, "kind": "START_CEREMONIAL", "category": null, "label": "D\u00e9part fictif", "km_from_start": null, "altitude_m": null, "climb_length_km": null, "avg_gradient_pct": null, "final_straight_m": null, "road_width_m": null, "licence": "All rights reserved (Amaury Sport Organisation)"}}, {"type": "Feature", "geometry": {"type": "Point", "coordinates": [1.54925, 45.13916]}, "properties": {"stage": 9, "kind": "START_REAL", "category": null, "label": "D\u00e9part r\u00e9el", "km_from_start": null, "altitude_m": null, "climb_length_km": null, "avg_gradient_pct": null, "final_straight_m": null, "road_width_m": null, "licence": "All rights reserved (Amaury Sport Organisation)"}}, {"type": "Feature", "geometry": {"type": "Point", "coordinates": [2.30745, 45.54624]}, "properties": {"stage": 9, "kind": "FINISH", "category": null, "label": "Arriv\u00e9e", "km_from_start": null, "altitude_m": null, "climb_length_km": null, "avg_gradient_pct": null, "final_straight_m": 500, "road_width_m": 5.5, "licence": "All rights reserved (Amaury Sport Organisation)"}}, {"type": "Feature", "geometry": {"type": "Point", "coordinates": [1.85202001, 45.471320328]}, "properties": {"stage": 9, "kind": "SUMMIT", "category": "2", "label": "Cat\u00e9gorie 2", "km_from_start": null, "altitude_m": 903, "climb_length_km": 3.8, "avg_gradient_pct": 7.5, "final_straight_m": null, "road_width_m": null, "licence": "All rights reserved (Amaury Sport Organisation)"}}, {"type": "Feature", "geometry": {"type": "Point", "coordinates": [1.866119999, 45.5197]}, "properties": {"stage": 9, "kind": "SUMMIT", "category": "3", "label": "Cat\u00e9gorie 3", "km_from_start": null, "altitude_m": 825, "climb_length_km": 4.8, "avg_gradient_pct": 6.0, "final_straight_m": null, "road_width_m": null, "licence": "All rights reserved (Amaury Sport Organisation)"}}, {"type": "Feature", "geometry": {"type": "Point", "coordinates": [2.122634377, 45.57045145]}, "properties": {"stage": 9, "kind": "SUMMIT", "category": "4", "label": "Cat\u00e9gorie 4", "km_from_start": null, "altitude_m": 977, "climb_length_km": 0.9, "avg_gradient_pct": 1.2, "final_straight_m": null, "road_width_m": null, "licence": "All rights reserved (Amaury Sport Organisation)"}}, {"type": "Feature", "geometry": {"type": "Point", "coordinates": [1.77962, 45.3049]}, "properties": {"stage": 9, "kind": "SUMMIT", "category": "3", "label": "Cat\u00e9gorie 3", "km_from_start": null, "altitude_m": 410, "climb_length_km": 2.3, "avg_gradient_pct": 7.4, "final_straight_m": null, "road_width_m": null, "licence": "All rights reserved (Amaury Sport Organisation)"}}, {"type": "Feature", "geometry": {"type": "Point", "coordinates": [2.44573, 44.92736]}, "properties": {"stage": 10, "kind": "START_CEREMONIAL", "category": null, "label": "D\u00e9part fictif", "km_from_start": null, "altitude_m": null, "climb_length_km": null, "avg_gradient_pct": null, "final_straight_m": null, "road_width_m": null, "licence": "All rights reserved (Amaury Sport Organisation)"}}, {"type": "Feature", "geometry": {"type": "Point", "coordinates": [2.404811214, 44.876088086]}, "properties": {"stage": 10, "kind": "START_REAL", "category": null, "label": "D\u00e9part r\u00e9el", "km_from_start": 0.0, "altitude_m": null, "climb_length_km": null, "avg_gradient_pct": null, "final_straight_m": null, "road_width_m": null, "licence": "All rights reserved (Amaury Sport Organisation)"}}, {"type": "Feature", "geometry": {"type": "Point", "coordinates": [2.43657, 44.780325]}, "properties": {"stage": 10, "kind": "SPRINT", "category": null, "label": "Sprint", "km_from_start": 25.588, "altitude_m": null, "climb_length_km": null, "avg_gradient_pct": null, "final_straight_m": null, "road_width_m": null, "licence": "All rights reserved (Amaury Sport Organisation)"}}, {"type": "Feature", "geometry": {"type": "Point", "coordinates": [2.67674527, 44.950591663]}, "properties": {"stage": 10, "kind": "SUMMIT", "category": "3", "label": "Cat\u00e9gorie 3", "km_from_start": 68.093, "altitude_m": 1043, "climb_length_km": 3.0, "avg_gradient_pct": 7.2, "final_straight_m": null, "road_width_m": null, "licence": "All rights reserved (Amaury Sport Organisation)"}}, {"type": "Feature", "geometry": {"type": "Point", "coordinates": [2.818082312, 45.018596167]}, "properties": {"stage": 10, "kind": "SUMMIT", "category": "2", "label": "Cat\u00e9gorie 2", "km_from_start": 97.37, "altitude_m": 1336, "climb_length_km": 5.9, "avg_gradient_pct": 6.7, "final_straight_m": null, "road_width_m": null, "licence": "All rights reserved (Amaury Sport Organisation)"}}, {"type": "Feature", "geometry": {"type": "Point", "coordinates": [2.794160358, 45.052298569]}, "properties": {"stage": 10, "kind": "SUMMIT", "category": "3", "label": "Cat\u00e9gorie 3", "km_from_start": 103.79, "altitude_m": 1392, "climb_length_km": 3.1, "avg_gradient_pct": 6.5, "final_straight_m": null, "road_width_m": null, "licence": "All rights reserved (Amaury Sport Organisation)"}}, {"type": "Feature", "geometry": {"type": "Point", "coordinates": [2.828481496, 45.137276238]}, "properties": {"stage": 10, "kind": "SUMMIT", "category": "3", "label": "Cat\u00e9gorie 3", "km_from_start": 118.827, "altitude_m": 1193, "climb_length_km": 5.2, "avg_gradient_pct": 5.3, "final_straight_m": null, "road_width_m": null, "licence": "All rights reserved (Amaury Sport Organisation)"}}, {"type": "Feature", "geometry": {"type": "Point", "coordinates": [2.672330935, 45.113714182]}, "properties": {"stage": 10, "kind": "SUMMIT", "category": "1", "label": "Cat\u00e9gorie 1", "km_from_start": 135.7, "altitude_m": 1589, "climb_length_km": 7.8, "avg_gradient_pct": 6.0, "final_straight_m": null, "road_width_m": null, "licence": "All rights reserved (Amaury Sport Organisation)"}}, {"type": "Feature", "geometry": {"type": "Point", "coordinates": [2.67369, 45.058117167]}, "properties": {"stage": 10, "kind": "SUMMIT", "category": "1", "label": "Cat\u00e9gorie 1", "km_from_start": 152.075, "altitude_m": 1309, "climb_length_km": 4.4, "avg_gradient_pct": 8.5, "final_straight_m": null, "road_width_m": null, "licence": "All rights reserved (Amaury Sport Organisation)"}}, {"type": "Feature", "geometry": {"type": "Point", "coordinates": [2.732, 45.08392]}, "properties": {"stage": 10, "kind": "SUMMIT", "category": "3", "label": "Cat\u00e9gorie 3", "km_from_start": 163.84, "altitude_m": 1294, "climb_length_km": 3.1, "avg_gradient_pct": 5.8, "final_straight_m": null, "road_width_m": null, "licence": "All rights reserved (Amaury Sport Organisation)"}}, {"type": "Feature", "geometry": {"type": "Point", "coordinates": [2.74803, 45.08432]}, "properties": {"stage": 10, "kind": "FINISH", "category": null, "label": "Arriv\u00e9e", "km_from_start": 166.6, "altitude_m": null, "climb_length_km": null, "avg_gradient_pct": null, "final_straight_m": 160, "road_width_m": 5.5, "licence": "All rights reserved (Amaury Sport Organisation)"}}, {"type": "Feature", "geometry": {"type": "Point", "coordinates": [3.407298405, 46.140929962]}, "properties": {"stage": 11, "kind": "START_CEREMONIAL", "category": null, "label": "D\u00e9part fictif", "km_from_start": null, "altitude_m": null, "climb_length_km": null, "avg_gradient_pct": null, "final_straight_m": null, "road_width_m": null, "licence": "All rights reserved (Amaury Sport Organisation)"}}, {"type": "Feature", "geometry": {"type": "Point", "coordinates": [3.41354, 46.159029999]}, "properties": {"stage": 11, "kind": "START_REAL", "category": null, "label": "D\u00e9part r\u00e9el", "km_from_start": 0.0, "altitude_m": null, "climb_length_km": null, "avg_gradient_pct": null, "final_straight_m": null, "road_width_m": null, "licence": "All rights reserved (Amaury Sport Organisation)"}}, {"type": "Feature", "geometry": {"type": "Point", "coordinates": [3.29066, 46.30875]}, "properties": {"stage": 11, "kind": "SPRINT", "category": null, "label": "Sprint", "km_from_start": 27.829, "altitude_m": null, "climb_length_km": null, "avg_gradient_pct": null, "final_straight_m": null, "road_width_m": null, "licence": "All rights reserved (Amaury Sport Organisation)"}}, {"type": "Feature", "geometry": {"type": "Point", "coordinates": [3.28409, 46.35297]}, "properties": {"stage": 11, "kind": "SUMMIT", "category": "4", "label": "Cat\u00e9gorie 4", "km_from_start": 32.923, "altitude_m": 300, "climb_length_km": 1.1, "avg_gradient_pct": 5.8, "final_straight_m": null, "road_width_m": null, "licence": "All rights reserved (Amaury Sport Organisation)"}}, {"type": "Feature", "geometry": {"type": "Point", "coordinates": [3.43743223, 47.004644275]}, "properties": {"stage": 11, "kind": "SUMMIT", "category": "4", "label": "Cat\u00e9gorie 4", "km_from_start": 123.455, "altitude_m": 360, "climb_length_km": 1.5, "avg_gradient_pct": 5.0, "final_straight_m": null, "road_width_m": null, "licence": "All rights reserved (Amaury Sport Organisation)"}}, {"type": "Feature", "geometry": {"type": "Point", "coordinates": [3.181266565, 46.982819569]}, "properties": {"stage": 11, "kind": "FINISH", "category": null, "label": "Arriv\u00e9e", "km_from_start": 161.3, "altitude_m": null, "climb_length_km": null, "avg_gradient_pct": null, "final_straight_m": null, "road_width_m": 6.0, "licence": "All rights reserved (Amaury Sport Organisation)"}}, {"type": "Feature", "geometry": {"type": "Point", "coordinates": [3.164260001, 46.85831]}, "properties": {"stage": 12, "kind": "START_REAL", "category": null, "label": "D\u00e9part r\u00e9el", "km_from_start": 0.0, "altitude_m": null, "climb_length_km": null, "avg_gradient_pct": null, "final_straight_m": null, "road_width_m": null, "licence": "All rights reserved (Amaury Sport Organisation)"}}, {"type": "Feature", "geometry": {"type": "Point", "coordinates": [3.163734333, 46.864086698]}, "properties": {"stage": 12, "kind": "START_CEREMONIAL", "category": null, "label": "D\u00e9part fictif", "km_from_start": 0.069, "altitude_m": null, "climb_length_km": null, "avg_gradient_pct": null, "final_straight_m": null, "road_width_m": null, "licence": "All rights reserved (Amaury Sport Organisation)"}}, {"type": "Feature", "geometry": {"type": "Point", "coordinates": [3.481053807, 46.828161862]}, "properties": {"stage": 12, "kind": "SPRINT", "category": null, "label": "Sprint", "km_from_start": 46.089, "altitude_m": null, "climb_length_km": null, "avg_gradient_pct": null, "final_straight_m": null, "road_width_m": null, "licence": "All rights reserved (Amaury Sport Organisation)"}}, {"type": "Feature", "geometry": {"type": "Point", "coordinates": [3.831689999, 46.80908]}, "properties": {"stage": 12, "kind": "SUMMIT", "category": "4", "label": "Cat\u00e9gorie 4", "km_from_start": 76.743, "altitude_m": 308, "climb_length_km": 2.1, "avg_gradient_pct": 4.0, "final_straight_m": null, "road_width_m": null, "licence": "All rights reserved (Amaury Sport Organisation)"}}, {"type": "Feature", "geometry": {"type": "Point", "coordinates": [4.046721873, 46.745706581]}, "properties": {"stage": 12, "kind": "SUMMIT", "category": "4", "label": "Cat\u00e9gorie 4", "km_from_start": 97.936, "altitude_m": 398, "climb_length_km": 2.5, "avg_gradient_pct": 4.5, "final_straight_m": null, "road_width_m": null, "licence": "All rights reserved (Amaury Sport Organisation)"}}, {"type": "Feature", "geometry": {"type": "Point", "coordinates": [4.66496, 46.71516]}, "properties": {"stage": 12, "kind": "SUMMIT", "category": "4", "label": "Cat\u00e9gorie 4", "km_from_start": 159.484, "altitude_m": 391, "climb_length_km": 2.7, "avg_gradient_pct": 4.3, "final_straight_m": null, "road_width_m": null, "licence": "All rights reserved (Amaury Sport Organisation)"}}, {"type": "Feature", "geometry": {"type": "Point", "coordinates": [4.850817803, 46.778023696]}, "properties": {"stage": 12, "kind": "FINISH", "category": null, "label": "Arriv\u00e9e", "km_from_start": 179.1, "altitude_m": null, "climb_length_km": null, "avg_gradient_pct": null, "final_straight_m": null, "road_width_m": 6.0, "licence": "All rights reserved (Amaury Sport Organisation)"}}, {"type": "Feature", "geometry": {"type": "Point", "coordinates": [5.496525418, 47.089774292]}, "properties": {"stage": 13, "kind": "START_CEREMONIAL", "category": null, "label": "D\u00e9part fictif", "km_from_start": null, "altitude_m": null, "climb_length_km": null, "avg_gradient_pct": null, "final_straight_m": null, "road_width_m": null, "licence": "All rights reserved (Amaury Sport Organisation)"}}, {"type": "Feature", "geometry": {"type": "Point", "coordinates": [5.545815, 47.097525]}, "properties": {"stage": 13, "kind": "START_REAL", "category": null, "label": "D\u00e9part r\u00e9el", "km_from_start": 0.0, "altitude_m": null, "climb_length_km": null, "avg_gradient_pct": null, "final_straight_m": null, "road_width_m": null, "licence": "All rights reserved (Amaury Sport Organisation)"}}, {"type": "Feature", "geometry": {"type": "Point", "coordinates": [6.57508, 47.75243]}, "properties": {"stage": 13, "kind": "SPRINT", "category": null, "label": "Sprint", "km_from_start": 137.857, "altitude_m": null, "climb_length_km": null, "avg_gradient_pct": null, "final_straight_m": null, "road_width_m": null, "licence": "All rights reserved (Amaury Sport Organisation)"}}, {"type": "Feature", "geometry": {"type": "Point", "coordinates": [6.746750001, 47.85919]}, "properties": {"stage": 13, "kind": "SUMMIT", "category": "3", "label": "Cat\u00e9gorie 3", "km_from_start": 157.464, "altitude_m": 678, "climb_length_km": 5.2, "avg_gradient_pct": 4.8, "final_straight_m": null, "road_width_m": null, "licence": "All rights reserved (Amaury Sport Organisation)"}}, {"type": "Feature", "geometry": {"type": "Point", "coordinates": [6.83483, 47.82042]}, "properties": {"stage": 13, "kind": "SUMMIT", "category": "1", "label": "Cat\u00e9gorie 1", "km_from_start": 175.873, "altitude_m": 1173, "climb_length_km": 8.8, "avg_gradient_pct": 6.9, "final_straight_m": null, "road_width_m": null, "licence": "All rights reserved (Amaury Sport Organisation)"}}, {"type": "Feature", "geometry": {"type": "Point", "coordinates": [6.853985394, 47.641306732]}, "properties": {"stage": 13, "kind": "FINISH", "category": null, "label": "Arriv\u00e9e", "km_from_start": 205.8, "altitude_m": null, "climb_length_km": null, "avg_gradient_pct": null, "final_straight_m": 420, "road_width_m": 6.0, "licence": "All rights reserved (Amaury Sport Organisation)"}}, {"type": "Feature", "geometry": {"type": "Point", "coordinates": [7.319272814, 47.739950803]}, "properties": {"stage": 14, "kind": "START_CEREMONIAL", "category": null, "label": "D\u00e9part fictif", "km_from_start": null, "altitude_m": null, "climb_length_km": null, "avg_gradient_pct": null, "final_straight_m": null, "road_width_m": null, "licence": "All rights reserved (Amaury Sport Organisation)"}}, {"type": "Feature", "geometry": {"type": "Point", "coordinates": [7.304885, 47.82063]}, "properties": {"stage": 14, "kind": "START_REAL", "category": null, "label": "D\u00e9part r\u00e9el", "km_from_start": 0.0, "altitude_m": null, "climb_length_km": null, "avg_gradient_pct": null, "final_straight_m": null, "road_width_m": null, "licence": "All rights reserved (Amaury Sport Organisation)"}}, {"type": "Feature", "geometry": {"type": "Point", "coordinates": [7.191819999, 47.83714]}, "properties": {"stage": 14, "kind": "SPRINT", "category": null, "label": "Sprint", "km_from_start": 12.447, "altitude_m": null, "climb_length_km": null, "avg_gradient_pct": null, "final_straight_m": null, "road_width_m": null, "licence": "All rights reserved (Amaury Sport Organisation)"}}, {"type": "Feature", "geometry": {"type": "Point", "coordinates": [7.10327, 47.903704167]}, "properties": {"stage": 14, "kind": "SUMMIT", "category": "1", "label": "Cat\u00e9gorie 1", "km_from_start": 36.494, "altitude_m": 1336, "climb_length_km": 21.6, "avg_gradient_pct": 4.7, "final_straight_m": null, "road_width_m": null, "licence": "All rights reserved (Amaury Sport Organisation)"}}, {"type": "Feature", "geometry": {"type": "Point", "coordinates": [6.89085, 47.91564]}, "properties": {"stage": 14, "kind": "SUMMIT", "category": "2", "label": "Cat\u00e9gorie 2", "km_from_start": 71.345, "altitude_m": 959, "climb_length_km": 9.8, "avg_gradient_pct": 4.7, "final_straight_m": null, "road_width_m": null, "licence": "All rights reserved (Amaury Sport Organisation)"}}, {"type": "Feature", "geometry": {"type": "Point", "coordinates": [6.83483, 47.82042]}, "properties": {"stage": 14, "kind": "SUMMIT", "category": "1", "label": "Cat\u00e9gorie 1", "km_from_start": 94.518, "altitude_m": 1173, "climb_length_km": 8.9, "avg_gradient_pct": 6.9, "final_straight_m": null, "road_width_m": null, "licence": "All rights reserved (Amaury Sport Organisation)"}}, {"type": "Feature", "geometry": {"type": "Point", "coordinates": [7.090185326, 47.904963261]}, "properties": {"stage": 14, "kind": "SUMMIT", "category": "1", "label": "Cat\u00e9gorie 1", "km_from_start": 149.669, "altitude_m": 1233, "climb_length_km": 11.2, "avg_gradient_pct": 7.3, "final_straight_m": null, "road_width_m": null, "licence": "All rights reserved (Amaury Sport Organisation)"}}, {"type": "Feature", "geometry": {"type": "Point", "coordinates": [7.029633815, 47.923325395]}, "properties": {"stage": 14, "kind": "FINISH", "category": null, "label": "Arriv\u00e9e", "km_from_start": 155.3, "altitude_m": null, "climb_length_km": null, "avg_gradient_pct": null, "final_straight_m": 170, "road_width_m": 6.0, "licence": "All rights reserved (Amaury Sport Organisation)"}}, {"type": "Feature", "geometry": {"type": "Point", "coordinates": [5.908321126, 46.745335883]}, "properties": {"stage": 15, "kind": "START_CEREMONIAL", "category": null, "label": "D\u00e9part fictif", "km_from_start": null, "altitude_m": null, "climb_length_km": null, "avg_gradient_pct": null, "final_straight_m": null, "road_width_m": null, "licence": "All rights reserved (Amaury Sport Organisation)"}}, {"type": "Feature", "geometry": {"type": "Point", "coordinates": [5.92576, 46.71519]}, "properties": {"stage": 15, "kind": "START_REAL", "category": null, "label": "D\u00e9part r\u00e9el", "km_from_start": 0.0, "altitude_m": null, "climb_length_km": null, "avg_gradient_pct": null, "final_straight_m": null, "road_width_m": null, "licence": "All rights reserved (Amaury Sport Organisation)"}}, {"type": "Feature", "geometry": {"type": "Point", "coordinates": [5.953381124, 46.577066928]}, "properties": {"stage": 15, "kind": "SPRINT", "category": null, "label": "Sprint", "km_from_start": 17.565, "altitude_m": null, "climb_length_km": null, "avg_gradient_pct": null, "final_straight_m": null, "road_width_m": null, "licence": "All rights reserved (Amaury Sport Organisation)"}}, {"type": "Feature", "geometry": {"type": "Point", "coordinates": [6.05637, 46.48559]}, "properties": {"stage": 15, "kind": "SUMMIT", "category": "3", "label": "Cat\u00e9gorie 3", "km_from_start": 37.018, "altitude_m": 1097, "climb_length_km": 6.6, "avg_gradient_pct": 5.1, "final_straight_m": null, "road_width_m": null, "licence": "All rights reserved (Amaury Sport Organisation)"}}, {"type": "Feature", "geometry": {"type": "Point", "coordinates": [6.17138, 46.119685]}, "properties": {"stage": 15, "kind": "SUMMIT", "category": "1", "label": "Cat\u00e9gorie 1", "km_from_start": 136.061, "altitude_m": 1175, "climb_length_km": 4.7, "avg_gradient_pct": 11.2, "final_straight_m": null, "road_width_m": null, "licence": "All rights reserved (Amaury Sport Organisation)"}}, {"type": "Feature", "geometry": {"type": "Point", "coordinates": [6.212535, 46.109500001]}, "properties": {"stage": 15, "kind": "SUMMIT", "category": "3", "label": "Cat\u00e9gorie 3", "km_from_start": 146.134, "altitude_m": 823, "climb_length_km": 2.1, "avg_gradient_pct": 8.3, "final_straight_m": null, "road_width_m": null, "licence": "All rights reserved (Amaury Sport Organisation)"}}, {"type": "Feature", "geometry": {"type": "Point", "coordinates": [6.427201068, 46.032825031]}, "properties": {"stage": 15, "kind": "FINISH", "category": "HC", "label": "Arriv\u00e9e/Cat\u00e9gorie HC", "km_from_start": 183.9, "altitude_m": null, "climb_length_km": null, "avg_gradient_pct": null, "final_straight_m": 150, "road_width_m": 5.0, "licence": "All rights reserved (Amaury Sport Organisation)"}}, {"type": "Feature", "geometry": {"type": "Point", "coordinates": [6.594864833, 46.400489288]}, "properties": {"stage": 16, "kind": "START_REAL", "category": null, "label": "D\u00e9part r\u00e9el", "km_from_start": 0.0, "altitude_m": null, "climb_length_km": null, "avg_gradient_pct": null, "final_straight_m": null, "road_width_m": null, "licence": "All rights reserved (Amaury Sport Organisation)"}}, {"type": "Feature", "geometry": {"type": "Point", "coordinates": [6.582120001, 46.386328]}, "properties": {"stage": 16, "kind": "TIME_CHECK", "category": null, "label": "Chrono", "km_from_start": 4.776, "altitude_m": null, "climb_length_km": null, "avg_gradient_pct": null, "final_straight_m": null, "road_width_m": null, "licence": "All rights reserved (Amaury Sport Organisation)"}}, {"type": "Feature", "geometry": {"type": "Point", "coordinates": [6.57158, 46.36854]}, "properties": {"stage": 16, "kind": "TIME_CHECK", "category": "2", "label": "Chrono/Cat\u00e9gorie 2", "km_from_start": 9.646, "altitude_m": null, "climb_length_km": null, "avg_gradient_pct": null, "final_straight_m": null, "road_width_m": null, "licence": "All rights reserved (Amaury Sport Organisation)"}}, {"type": "Feature", "geometry": {"type": "Point", "coordinates": [6.504145378, 46.366781697]}, "properties": {"stage": 16, "kind": "TIME_CHECK", "category": null, "label": "Chrono", "km_from_start": 17.997, "altitude_m": null, "climb_length_km": null, "avg_gradient_pct": null, "final_straight_m": null, "road_width_m": null, "licence": "All rights reserved (Amaury Sport Organisation)"}}, {"type": "Feature", "geometry": {"type": "Point", "coordinates": [6.487650245, 46.386925379]}, "properties": {"stage": 16, "kind": "FINISH", "category": null, "label": "Arriv\u00e9e", "km_from_start": 26.1, "altitude_m": null, "climb_length_km": null, "avg_gradient_pct": null, "final_straight_m": 200, "road_width_m": 5.5, "licence": "All rights reserved (Amaury Sport Organisation)"}}, {"type": "Feature", "geometry": {"type": "Point", "coordinates": [5.92103, 45.56832]}, "properties": {"stage": 17, "kind": "START_CEREMONIAL", "category": null, "label": "D\u00e9part fictif", "km_from_start": null, "altitude_m": null, "climb_length_km": null, "avg_gradient_pct": null, "final_straight_m": null, "road_width_m": null, "licence": "All rights reserved (Amaury Sport Organisation)"}}, {"type": "Feature", "geometry": {"type": "Point", "coordinates": [5.91272, 45.63533]}, "properties": {"stage": 17, "kind": "START_REAL", "category": null, "label": "D\u00e9part r\u00e9el", "km_from_start": 0.0, "altitude_m": null, "climb_length_km": null, "avg_gradient_pct": null, "final_straight_m": null, "road_width_m": null, "licence": "All rights reserved (Amaury Sport Organisation)"}}, {"type": "Feature", "geometry": {"type": "Point", "coordinates": [5.986926667, 45.747263333]}, "properties": {"stage": 17, "kind": "SUMMIT", "category": "4", "label": "Cat\u00e9gorie 4", "km_from_start": 19.381, "altitude_m": 481, "climb_length_km": 1.6, "avg_gradient_pct": 5.5, "final_straight_m": null, "road_width_m": null, "licence": "All rights reserved (Amaury Sport Organisation)"}}, {"type": "Feature", "geometry": {"type": "Point", "coordinates": [6.106217369, 45.701806842]}, "properties": {"stage": 17, "kind": "SUMMIT", "category": "4", "label": "Cat\u00e9gorie 4", "km_from_start": 35.733, "altitude_m": 686, "climb_length_km": 1.7, "avg_gradient_pct": 1.6, "final_straight_m": null, "road_width_m": null, "licence": "All rights reserved (Amaury Sport Organisation)"}}, {"type": "Feature", "geometry": {"type": "Point", "coordinates": [6.060037394, 45.595951338]}, "properties": {"stage": 17, "kind": "SUMMIT", "category": "3", "label": "Cat\u00e9gorie 3", "km_from_start": 49.749, "altitude_m": 1142, "climb_length_km": 3.6, "avg_gradient_pct": 6.8, "final_straight_m": null, "road_width_m": null, "licence": "All rights reserved (Amaury Sport Organisation)"}}, {"type": "Feature", "geometry": {"type": "Point", "coordinates": [6.014240635, 45.589304811]}, "properties": {"stage": 17, "kind": "SUMMIT", "category": "4", "label": "Cat\u00e9gorie 4", "km_from_start": 59.654, "altitude_m": 611, "climb_length_km": 1.2, "avg_gradient_pct": 5.7, "final_straight_m": null, "road_width_m": null, "licence": "All rights reserved (Amaury Sport Organisation)"}}, {"type": "Feature", "geometry": {"type": "Point", "coordinates": [5.43506, 45.397410001]}, "properties": {"stage": 17, "kind": "SPRINT", "category": null, "label": "Sprint", "km_from_start": 147.561, "altitude_m": null, "climb_length_km": null, "avg_gradient_pct": null, "final_straight_m": null, "road_width_m": null, "licence": "All rights reserved (Amaury Sport Organisation)"}}, {"type": "Feature", "geometry": {"type": "Point", "coordinates": [5.591107717, 45.366568366]}, "properties": {"stage": 17, "kind": "FINISH", "category": null, "label": "Arriv\u00e9e", "km_from_start": 174.7, "altitude_m": null, "climb_length_km": null, "avg_gradient_pct": null, "final_straight_m": 350, "road_width_m": 6.0, "licence": "All rights reserved (Amaury Sport Organisation)"}}, {"type": "Feature", "geometry": {"type": "Point", "coordinates": [5.589714985, 45.367586896]}, "properties": {"stage": 18, "kind": "START_CEREMONIAL", "category": null, "label": "D\u00e9part fictif", "km_from_start": null, "altitude_m": null, "climb_length_km": null, "avg_gradient_pct": null, "final_straight_m": null, "road_width_m": null, "licence": "All rights reserved (Amaury Sport Organisation)"}}, {"type": "Feature", "geometry": {"type": "Point", "coordinates": [5.515960001, 45.31615]}, "properties": {"stage": 18, "kind": "START_REAL", "category": null, "label": "D\u00e9part r\u00e9el", "km_from_start": 0.0, "altitude_m": null, "climb_length_km": null, "avg_gradient_pct": null, "final_straight_m": null, "road_width_m": null, "licence": "All rights reserved (Amaury Sport Organisation)"}}, {"type": "Feature", "geometry": {"type": "Point", "coordinates": [5.61925, 45.178799999]}, "properties": {"stage": 18, "kind": "SUMMIT", "category": "1", "label": "Cat\u00e9gorie 1", "km_from_start": 36.869, "altitude_m": 854, "climb_length_km": 11.5, "avg_gradient_pct": 5.4, "final_straight_m": null, "road_width_m": null, "licence": "All rights reserved (Amaury Sport Organisation)"}}, {"type": "Feature", "geometry": {"type": "Point", "coordinates": [5.7007, 44.96606]}, "properties": {"stage": 18, "kind": "SUMMIT", "category": "2", "label": "Cat\u00e9gorie 2", "km_from_start": 92.332, "altitude_m": 844, "climb_length_km": 9.7, "avg_gradient_pct": 5.0, "final_straight_m": null, "road_width_m": null, "licence": "All rights reserved (Amaury Sport Organisation)"}}, {"type": "Feature", "geometry": {"type": "Point", "coordinates": [5.75257, 44.95459]}, "properties": {"stage": 18, "kind": "SPRINT", "category": null, "label": "Sprint", "km_from_start": 98.733, "altitude_m": null, "climb_length_km": null, "avg_gradient_pct": null, "final_straight_m": null, "road_width_m": null, "licence": "All rights reserved (Amaury Sport Organisation)"}}, {"type": "Feature", "geometry": {"type": "Point", "coordinates": [5.825447343, 44.882277971]}, "properties": {"stage": 18, "kind": "SUMMIT", "category": "3", "label": "Cat\u00e9gorie 3", "km_from_start": 112.899, "altitude_m": 836, "climb_length_km": 3.4, "avg_gradient_pct": 6.6, "final_straight_m": null, "road_width_m": null, "licence": "All rights reserved (Amaury Sport Organisation)"}}, {"type": "Feature", "geometry": {"type": "Point", "coordinates": [6.196113787, 44.644106089]}, "properties": {"stage": 18, "kind": "SUMMIT", "category": "3", "label": "Cat\u00e9gorie 3", "km_from_start": 166.224, "altitude_m": 1237, "climb_length_km": 2.5, "avg_gradient_pct": 6.9, "final_straight_m": null, "road_width_m": null, "licence": "All rights reserved (Amaury Sport Organisation)"}}, {"type": "Feature", "geometry": {"type": "Point", "coordinates": [6.322093509, 44.696674844]}, "properties": {"stage": 18, "kind": "FINISH", "category": "1", "label": "Arriv\u00e9e/Cat\u00e9gorie 1", "km_from_start": 185.2, "altitude_m": null, "climb_length_km": null, "avg_gradient_pct": null, "final_straight_m": 200, "road_width_m": 5.0, "licence": "All rights reserved (Amaury Sport Organisation)"}}, {"type": "Feature", "geometry": {"type": "Point", "coordinates": [6.06034, 44.54231]}, "properties": {"stage": 19, "kind": "START_CEREMONIAL", "category": null, "label": "D\u00e9part fictif", "km_from_start": null, "altitude_m": null, "climb_length_km": null, "avg_gradient_pct": null, "final_straight_m": null, "road_width_m": null, "licence": "All rights reserved (Amaury Sport Organisation)"}}, {"type": "Feature", "geometry": {"type": "Point", "coordinates": [6.08209, 44.57999]}, "properties": {"stage": 19, "kind": "START_REAL", "category": null, "label": "D\u00e9part r\u00e9el", "km_from_start": 0.0, "altitude_m": null, "climb_length_km": null, "avg_gradient_pct": null, "final_straight_m": null, "road_width_m": null, "licence": "All rights reserved (Amaury Sport Organisation)"}}, {"type": "Feature", "geometry": {"type": "Point", "coordinates": [6.080626666, 44.610570001]}, "properties": {"stage": 19, "kind": "SUMMIT", "category": "2", "label": "Cat\u00e9gorie 2", "km_from_start": 4.864, "altitude_m": 1246, "climb_length_km": 4.8, "avg_gradient_pct": 7.2, "final_straight_m": null, "road_width_m": null, "licence": "All rights reserved (Amaury Sport Organisation)"}}, {"type": "Feature", "geometry": {"type": "Point", "coordinates": [5.98461, 44.69236]}, "properties": {"stage": 19, "kind": "SUMMIT", "category": "1", "label": "Cat\u00e9gorie 1", "km_from_start": 25.247, "altitude_m": 1664, "climb_length_km": 7.2, "avg_gradient_pct": 8.5, "final_straight_m": null, "road_width_m": null, "licence": "All rights reserved (Amaury Sport Organisation)"}}, {"type": "Feature", "geometry": {"type": "Point", "coordinates": [5.9735135, 44.935973111]}, "properties": {"stage": 19, "kind": "SPRINT", "category": null, "label": "Sprint", "km_from_start": 89.368, "altitude_m": null, "climb_length_km": null, "avg_gradient_pct": null, "final_straight_m": null, "road_width_m": null, "licence": "All rights reserved (Amaury Sport Organisation)"}}, {"type": "Feature", "geometry": {"type": "Point", "coordinates": [5.967430911, 45.008254557]}, "properties": {"stage": 19, "kind": "SUMMIT", "category": "2", "label": "Cat\u00e9gorie 2", "km_from_start": 99.184, "altitude_m": 1371, "climb_length_km": 5.4, "avg_gradient_pct": 6.4, "final_straight_m": null, "road_width_m": null, "licence": "All rights reserved (Amaury Sport Organisation)"}}, {"type": "Feature", "geometry": {"type": "Point", "coordinates": [6.07119934, 45.094078987]}, "properties": {"stage": 19, "kind": "FINISH", "category": "3", "label": "Arriv\u00e9eMixte", "km_from_start": 127.9, "altitude_m": 1850, "climb_length_km": 3.7, "avg_gradient_pct": 6.2, "final_straight_m": null, "road_width_m": null, "licence": "All rights reserved (Amaury Sport Organisation)"}}, {"type": "Feature", "geometry": {"type": "Point", "coordinates": [6.029599999, 45.056269999]}, "properties": {"stage": 20, "kind": "START_CEREMONIAL", "category": null, "label": "D\u00e9part fictif", "km_from_start": null, "altitude_m": null, "climb_length_km": null, "avg_gradient_pct": null, "final_straight_m": null, "road_width_m": null, "licence": "All rights reserved (Amaury Sport Organisation)"}}, {"type": "Feature", "geometry": {"type": "Point", "coordinates": [6.00894, 45.10098]}, "properties": {"stage": 20, "kind": "START_REAL", "category": null, "label": "D\u00e9part r\u00e9el", "km_from_start": 0.0, "altitude_m": null, "climb_length_km": null, "avg_gradient_pct": null, "final_straight_m": null, "road_width_m": null, "licence": "All rights reserved (Amaury Sport Organisation)"}}, {"type": "Feature", "geometry": {"type": "Point", "coordinates": [6.203559834, 45.22746]}, "properties": {"stage": 20, "kind": "SUMMIT", "category": "HC", "label": "Cat\u00e9gorie HC", "km_from_start": 33.959, "altitude_m": 2067, "climb_length_km": 24.0, "avg_gradient_pct": 5.2, "final_straight_m": null, "road_width_m": null, "licence": "All rights reserved (Amaury Sport Organisation)"}}, {"type": "Feature", "geometry": {"type": "Point", "coordinates": [6.387238941, 45.258778691]}, "properties": {"stage": 20, "kind": "SPRINT", "category": null, "label": "Sprint", "km_from_start": 66.656, "altitude_m": null, "climb_length_km": null, "avg_gradient_pct": null, "final_straight_m": null, "road_width_m": null, "licence": "All rights reserved (Amaury Sport Organisation)"}}, {"type": "Feature", "geometry": {"type": "Point", "coordinates": [6.44456, 45.20269]}, "properties": {"stage": 20, "kind": "SUMMIT", "category": "1", "label": "Cat\u00e9gorie 1", "km_from_start": 87.716, "altitude_m": 1566, "climb_length_km": 11.9, "avg_gradient_pct": 7.1, "final_straight_m": null, "road_width_m": null, "licence": "All rights reserved (Amaury Sport Organisation)"}}, {"type": "Feature", "geometry": {"type": "Point", "coordinates": [6.40792, 45.06415]}, "properties": {"stage": 20, "kind": "SUMMIT", "category": "HC", "label": "Cat\u00e9gorie HC", "km_from_start": 110.648, "altitude_m": 2642, "climb_length_km": 17.7, "avg_gradient_pct": 6.9, "final_straight_m": null, "road_width_m": null, "licence": "All rights reserved (Amaury Sport Organisation)"}}, {"type": "Feature", "geometry": {"type": "Point", "coordinates": [6.149046792, 45.087470329]}, "properties": {"stage": 20, "kind": "SUMMIT", "category": "HC", "label": "Cat\u00e9gorie HC", "km_from_start": 156.606, "altitude_m": 1999, "climb_length_km": 12.8, "avg_gradient_pct": 7.3, "final_straight_m": null, "road_width_m": null, "licence": "All rights reserved (Amaury Sport Organisation)"}}, {"type": "Feature", "geometry": {"type": "Point", "coordinates": [6.07119934, 45.094078987]}, "properties": {"stage": 20, "kind": "FINISH", "category": "3", "label": "Arriv\u00e9eMixte", "km_from_start": 170.9, "altitude_m": 1850, "climb_length_km": 3.7, "avg_gradient_pct": 6.2, "final_straight_m": null, "road_width_m": null, "licence": "All rights reserved (Amaury Sport Organisation)"}}, {"type": "Feature", "geometry": {"type": "Point", "coordinates": [2.30348, 48.87107]}, "properties": {"stage": 21, "kind": "SPRINT", "category": null, "label": "Sprint", "km_from_start": null, "altitude_m": null, "climb_length_km": null, "avg_gradient_pct": null, "final_straight_m": null, "road_width_m": null, "licence": "All rights reserved (Amaury Sport Organisation)"}}, {"type": "Feature", "geometry": {"type": "Point", "coordinates": [2.31153, 48.86852]}, "properties": {"stage": 21, "kind": "FINISH", "category": null, "label": "Arriv\u00e9e", "km_from_start": null, "altitude_m": null, "climb_length_km": null, "avg_gradient_pct": null, "final_straight_m": 700, "road_width_m": 8.0, "licence": "All rights reserved (Amaury Sport Organisation)"}}, {"type": "Feature", "geometry": {"type": "Point", "coordinates": [2.34122, 48.88661]}, "properties": {"stage": 21, "kind": "SUMMIT", "category": "4", "label": "Cat\u00e9gorie 4", "km_from_start": null, "altitude_m": 128, "climb_length_km": 1.0, "avg_gradient_pct": 6.5, "final_straight_m": null, "road_width_m": null, "licence": "All rights reserved (Amaury Sport Organisation)"}}, {"type": "Feature", "geometry": {"type": "Point", "coordinates": [1.79742, 48.86442]}, "properties": {"stage": 21, "kind": "START_CEREMONIAL", "category": null, "label": "D\u00e9part fictif", "km_from_start": null, "altitude_m": null, "climb_length_km": null, "avg_gradient_pct": null, "final_straight_m": null, "road_width_m": null, "licence": "All rights reserved (Amaury Sport Organisation)"}}, {"type": "Feature", "geometry": {"type": "Point", "coordinates": [2.204935418, 48.808984702]}, "properties": {"stage": 21, "kind": "SUMMIT", "category": "4", "label": "Cat\u00e9gorie 4", "km_from_start": null, "altitude_m": 180, "climb_length_km": 0.7, "avg_gradient_pct": 9.7, "final_straight_m": null, "road_width_m": null, "licence": "All rights reserved (Amaury Sport Organisation)"}}, {"type": "Feature", "geometry": {"type": "Point", "coordinates": [1.77001, 48.85101]}, "properties": {"stage": 21, "kind": "START_REAL", "category": null, "label": "D\u00e9part r\u00e9el", "km_from_start": null, "altitude_m": null, "climb_length_km": null, "avg_gradient_pct": null, "final_straight_m": null, "road_width_m": null, "licence": "All rights reserved (Amaury Sport Organisation)"}}], "licence_notice": ["Official route geometry \u00a9 Amaury Sport Organisation. Exported for local analysis only."]}